[{"streetName": "Kortrijkstraat", "houseNumber": "45", "postalCode": "2140", "city": "Antwerpen", "projectID": 81},
 {"streetName": "Lindendreef", "houseNumber": "73", "postalCode": "2320", "city": "Hoogstraten", "projectID": 69},
 {"streetName": "Kortrijksestraat", "houseNumber": "337", "postalCode": "3010", "city": "Leuven", "projectID": 72},
 {"streetName": "Kongostraat", "houseNumber": "95", "postalCode": "9100", "city": "Sint-Niklaas", "projectID": 9},
 {"streetName": "Hoevelei", "houseNumber": "93", "postalCode": "2630", "city": "Aartselaar", "projectID": 60},
 {"streetName": "Lievevrouwkesbosweg", "houseNumber": "12", "postalCode": "2610", "city": "Antwerpen", "projectID": 11},
 {"streetName": "Turnhoutsebaan", "houseNumber": "186", "postalCode": "2100", "city": "Antwerpen", "projectID": 36},
 {"streetName": "Woeringenstraat", "houseNumber": "27", "postalCode": "2600", "city": "Antwerpen", "projectID": 42},
 {"streetName": "Weilandstraat", "houseNumber": "3", "postalCode": "2060", "city": "Antwerpen", "projectID": 45},
 {"streetName": "Tweemontstraat", "houseNumber": "385", "postalCode": "2100", "city": "Antwerpen", "projectID": 44},
 {"streetName": "Lijsterlaan", "houseNumber": "2", "postalCode": "2660", "city": "Antwerpen", "projectID": 62},
 {"streetName": "Legerstraat", "houseNumber": "255", "postalCode": "2610", "city": "Antwerpen", "projectID": 64},
 {"streetName": "Laaglandlaan", "houseNumber": "175", "postalCode": "2170", "city": "Antwerpen", "projectID": 67},
 {"streetName": "Gravinstraat", "houseNumber": "24", "postalCode": "2140", "city": "Antwerpen", "projectID": 74},
 {"streetName": "Oudebaan", "houseNumber": "103", "postalCode": "2610", "city": "Antwerpen", "projectID": 5},
 {"streetName": "Offerandestraat", "houseNumber": "89", "postalCode": "2060", "city": "Antwerpen", "projectID": 50},
 {"streetName": "Polderdreef", "houseNumber": "5", "postalCode": "9120", "city": "Beveren", "projectID": 46},
 {"streetName": "Groenendijkstraat", "houseNumber": "193", "postalCode": "8450", "city": "Bredene", "projectID": 68},
 {"streetName": "Brieversweg", "houseNumber": "254", "postalCode": "8310", "city": "Brugge", "projectID": 61},
 {"streetName": "Legeweg", "houseNumber": "127", "postalCode": "8200", "city": "Brugge", "projectID": 76},
 {"streetName": "Hertsvelde", "houseNumber": "53", "postalCode": "8200", "city": "Brugge", "projectID": 77},
 {"streetName": "Kreupelenstraat", "houseNumber": "33", "postalCode": "8000", "city": "Brugge", "projectID": 3},
 {"streetName": "Dendermondesteenweg", "houseNumber": "174", "postalCode": "9070", "city": "Destelbergen", "projectID": 1},
 {"streetName": "Pegasusstraat", "houseNumber": "6", "postalCode": "3290", "city": "Diest", "projectID": 52},
 {"streetName": "Melkerijstraat", "houseNumber": "1", "postalCode": "8600", "city": "Diksmuide", "projectID": 37},
 {"streetName": "Zavelputstraat", "houseNumber": "6", "postalCode": "3600", "city": "Genk", "projectID": 40},
 {"streetName": "Zomerstraat", "houseNumber": "21", "postalCode": "9000", "city": "Gent", "projectID": 20},
 {"streetName": "Abrikoosstraat", "houseNumber": "8", "postalCode": "9000", "city": "Gent", "projectID": 57},
 {"streetName": "Kavel", "houseNumber": "G", "postalCode": "3020", "city": "Herent", "projectID": 17},
 {"streetName": "Mechelsesteenweg", "houseNumber": "1092", "postalCode": "3020", "city": "Herent", "projectID": 26},
 {"streetName": "Schansstraat", "houseNumber": "111", "postalCode": "3470", "city": "Kortenaken", "projectID": 2},
 {"streetName": "Stasegemsestraat", "houseNumber": "76", "postalCode": "8500", "city": "Kortrijk", "projectID": 30},
 {"streetName": "Zwevegemsestraat", "houseNumber": "88", "postalCode": "8500", "city": "Kortrijk", "projectID": 28},
 {"streetName": "Tervuursevest", "houseNumber": "198", "postalCode": "3000", "city": "Leuven", "projectID": 27},
 {"streetName": "Processiestraat", "houseNumber": "41", "postalCode": "3012", "city": "Leuven", "projectID": 33},
 {"streetName": "Pamelsestraat", "houseNumber": "48", "postalCode": "1770", "city": "Liedekerke", "projectID": 70},
 {"streetName": "Leuvensesteenweg", "houseNumber": "338", "postalCode": "2812", "city": "Mechelen", "projectID": 4},
 {"streetName": "Voorhavenlaan", "houseNumber": "114", "postalCode": "8400", "city": "Oostende", "projectID": 63},
 {"streetName": "Taboralaan", "houseNumber": "148", "postalCode": "8400", "city": "Oostende", "projectID": 47},
 {"streetName": "Hazewindstraat", "houseNumber": "25", "postalCode": "9100", "city": "Sint-Niklaas", "projectID": 24},
 {"streetName": "Vlasstraat", "houseNumber": "40", "postalCode": "9100", "city": "Sint-Niklaas", "projectID": 54},
 {"streetName": "Groenplein", "houseNumber": "8", "postalCode": "2300", "city": "Turnhout", "projectID": 16},
 {"streetName": "Volksstraat", "houseNumber": "71", "postalCode": "2830", "city": "Willebroek", "projectID": 65}]