[{"streetName": "Kortrijkstraat", "streetNumber": "45", "postalCode": "2140", "city": "Antwerpen", "projectID": 81},
 {"streetName": "Lindendreef", "streetNumber": "73", "postalCode": "2320", "city": "Hoogstraten", "projectID": 69},
 {"streetName": "Kortrijksestraat", "streetNumber": "337", "postalCode": "3010", "city": "Leuven", "projectID": 72},
 {"streetName": "Bredestraat", "streetNumber": "lot3", "postalCode": "3271", "city": "Scherpenheuvel", "projectID": 39},
 {"streetName": "Bredestraat", "streetNumber": "lot10", "postalCode": "3271", "city": "Scherpenheuvel", "projectID": 58},
 {"streetName": "Bredestraat", "streetNumber": "lot12", "postalCode": "3271", "city": "Scherpenheuvel", "projectID": 31},
 {"streetName": "Bredestraat", "streetNumber": "lot14", "postalCode": "3271", "city": "Scherpenheuvel", "projectID": 7},
 {"streetName": "Kongostraat", "streetNumber": "95", "postalCode": "9100", "city": "Sint", "projectID": 9},
 {"streetName": "Hoevelei", "streetNumber": "93", "postalCode": "2630", "city": "Aartselaar", "projectID": 60},
 {"streetName": "Lievevrouwkesbosweg", "streetNumber": "12", "postalCode": "2610", "city": "Antwerpen", "projectID": 11},
 {"streetName": "Lievevrouwkesbosweg", "streetNumber": "12", "postalCode": "2610", "city": "Antwerpen", "projectID": 25},
 {"streetName": "Ypermanstraat", "streetNumber": "54", "postalCode": "2060", "city": "Antwerpen", "projectID": 6},
 {"streetName": "Cortbeemdelei", "streetNumber": "142", "postalCode": "2100", "city": "Antwerpen", "projectID": 22},
 {"streetName": "Turnhoutsebaan", "streetNumber": "186", "postalCode": "2100", "city": "Antwerpen", "projectID": 36},
 {"streetName": "Woeringenstraat", "streetNumber": "27", "postalCode": "2600", "city": "Antwerpen", "projectID": 42},
 {"streetName": "Woeringenstraat", "streetNumber": "27", "postalCode": "2600", "city": "Antwerpen", "projectID": 18},
 {"streetName": "Weilandstraat", "streetNumber": "3", "postalCode": "2060", "city": "Antwerpen", "projectID": 45},
 {"streetName": "Cretsstraat", "streetNumber": "27", "postalCode": "2660", "city": "Antwerpen", "projectID": 21},
 {"streetName": "Tweemontstraat", "streetNumber": "385", "postalCode": "2100", "city": "Antwerpen", "projectID": 44},
 {"streetName": "Lijsterlaan", "streetNumber": "2", "postalCode": "2660", "city": "Antwerpen", "projectID": 62},
 {"streetName": "Legerstraat", "streetNumber": "255", "postalCode": "2610", "city": "Antwerpen", "projectID": 64},
 {"streetName": "Laaglandlaan", "streetNumber": "175", "postalCode": "2170", "city": "Antwerpen", "projectID": 67},
 {"streetName": "Gravinstraat", "streetNumber": "24", "postalCode": "2140", "city": "Antwerpen", "projectID": 74},
 {"streetName": "Bilmeyerstraat", "streetNumber": "8", "postalCode": "2600", "city": "Antwerpen", "projectID": 75},
 {"streetName": "Oudebaan", "streetNumber": "103", "postalCode": "2610", "city": "Antwerpen", "projectID": 5},
 {"streetName": "Offerandestraat", "streetNumber": "89", "postalCode": "2060", "city": "Antwerpen", "projectID": 50},
 {"streetName": "Polderdreef", "streetNumber": "5", "postalCode": "9120", "city": "Beveren", "projectID": 46},
 {"streetName": "Groenendijkstraat", "streetNumber": "193", "postalCode": "8450", "city": "Bredene", "projectID": 68},
 {"streetName": "Groenendijkstraat", "streetNumber": "193", "postalCode": "8450", "city": "Bredene", "projectID": 73},
 {"streetName": "Brieversweg", "streetNumber": "254", "postalCode": "8310", "city": "Brugge", "projectID": 61},
 {"streetName": "Legeweg", "streetNumber": "127", "postalCode": "8200", "city": "Brugge", "projectID": 76},
 {"streetName": "Hertsvelde", "streetNumber": "53", "postalCode": "8200", "city": "Brugge", "projectID": 77},
 {"streetName": "Kreupelenstraat", "streetNumber": "33", "postalCode": "8000", "city": "Brugge", "projectID": 3},
 {"streetName": "Dendermondesteenweg", "streetNumber": "174", "postalCode": "9070", "city": "Destelbergen", "projectID": 1},
 {"streetName": "Pegasusstraat", "streetNumber": "6", "postalCode": "3290", "city": "Diest", "projectID": 52},
 {"streetName": "Pegasusstraat", "streetNumber": "4", "postalCode": "3290", "city": "Diest", "projectID": 51},
 {"streetName": "Melkerijstraat", "streetNumber": "1", "postalCode": "8600", "city": "Diksmuide", "projectID": 37},
 {"streetName": "Zavelputstraat", "streetNumber": "6", "postalCode": "3600", "city": "Genk", "projectID": 40},
 {"streetName": "Zomerstraat", "streetNumber": "21", "postalCode": "9000", "city": "Gent", "projectID": 20},
 {"streetName": "Abrikoosstraat", "streetNumber": "8", "postalCode": "9000", "city": "Gent", "projectID": 57},
 {"streetName": "Govaertsstraat", "streetNumber": "10", "postalCode": "2222", "city": "Heist", "projectID": 48},
 {"streetName": "Kavel G", "streetNumber": "lot1", "postalCode": "3020", "city": "Herent", "projectID": 17},
 {"streetName": "Kavel G", "streetNumber": "lot2", "postalCode": "3020", "city": "Herent", "projectID": 23},
 {"streetName": "Kavel G", "streetNumber": "lot3", "postalCode": "3020", "city": "Herent", "projectID": 12},
 {"streetName": "Mechelsesteenweg", "streetNumber": "1092", "postalCode": "3020", "city": "Herent", "projectID": 26},
 {"streetName": "Lindendreef", "streetNumber": "73", "postalCode": "2320", "city": "Hoogstraten", "projectID": 66},
 {"streetName": "Michielsstraat", "streetNumber": "11", "postalCode": "2235", "city": "Hulshout", "projectID": 53},
 {"streetName": "Schansstraat", "streetNumber": "111", "postalCode": "3470", "city": "Kortenaken", "projectID": 2},
 {"streetName": "Stasegemsestraat", "streetNumber": "76", "postalCode": "8500", "city": "Kortrijk", "projectID": 30},
 {"streetName": "Zwevegemsestraat", "streetNumber": "88", "postalCode": "8500", "city": "Kortrijk", "projectID": 28},
 {"streetName": "Tervuursevest", "streetNumber": "198", "postalCode": "3000", "city": "Leuven", "projectID": 27},
 {"streetName": "Processiestraat", "streetNumber": "41", "postalCode": "3012", "city": "Leuven", "projectID": 33},
 {"streetName": "Processiestraat", "streetNumber": "41", "postalCode": "3012", "city": "Leuven", "projectID": 10},
 {"streetName": "Kortrijksestraat", "streetNumber": "337", "postalCode": "3010", "city": "Leuven", "projectID": 71},
 {"streetName": "Pamelsestraat", "streetNumber": "48", "postalCode": "1770", "city": "Liedekerke", "projectID": 70},
 {"streetName": "Leuvensesteenweg", "streetNumber": "338", "postalCode": "2812", "city": "Mechelen", "projectID": 4},
 {"streetName": "Godeau", "streetNumber": "24", "postalCode": "1435", "city": "Mont", "projectID": 49},
 {"streetName": "Voorhavenlaan", "streetNumber": "114", "postalCode": "8400", "city": "Oostende", "projectID": 63},
 {"streetName": "Taboralaan", "streetNumber": "148", "postalCode": "8400", "city": "Oostende", "projectID": 47},
 {"streetName": "Bredestraat", "streetNumber": "lot1", "postalCode": "3271", "city": "Scherpenheuvel", "projectID": 29},
 {"streetName": "Bredestraat", "streetNumber": "lot2", "postalCode": "3271", "city": "Scherpenheuvel", "projectID": 34},
 {"streetName": "Bredestraat", "streetNumber": "lot4", "postalCode": "3271", "city": "Scherpenheuvel", "projectID": 32},
 {"streetName": "Bredestraat", "streetNumber": "lot5", "postalCode": "3271", "city": "Scherpenheuvel", "projectID": 43},
 {"streetName": "Bredestraat", "streetNumber": "lot6", "postalCode": "3271", "city": "Scherpenheuvel", "projectID": 38},
 {"streetName": "Bredestraat", "streetNumber": "lot7", "postalCode": "3271", "city": "Scherpenheuvel", "projectID": 55},
 {"streetName": "Bredestraat", "streetNumber": "lot8", "postalCode": "3271", "city": "Scherpenheuvel", "projectID": 19},
 {"streetName": "Bredestraat", "streetNumber": "lot9", "postalCode": "3271", "city": "Scherpenheuvel", "projectID": 56},
 {"streetName": "Bredestraat", "streetNumber": "lot11", "postalCode": "3271", "city": "Scherpenheuvel", "projectID": 59},
 {"streetName": "Bredestraat", "streetNumber": "lot13", "postalCode": "3271", "city": "Scherpenheuvel", "projectID": 35},
 {"streetName": "Bredestraat", "streetNumber": "lot15", "postalCode": "3271", "city": "Scherpenheuvel", "projectID": 8},
 {"streetName": "Bredestraat", "streetNumber": "lot16", "postalCode": "3271", "city": "Scherpenheuvel", "projectID": 13},
 {"streetName": "Bredestraat", "streetNumber": "lot17", "postalCode": "3271", "city": "Scherpenheuvel", "projectID": 14},
 {"streetName": "Bredestraat", "streetNumber": "lot18", "postalCode": "3271", "city": "Scherpenheuvel", "projectID": 15},
 {"streetName": "Bredestraat", "streetNumber": "lot27", "postalCode": "3271", "city": "Scherpenheuvel", "projectID": 41},
 {"streetName": "Hazewindstraat", "streetNumber": "25", "postalCode": "9100", "city": "Sint", "projectID": 24},
 {"streetName": "Vlasstraat", "streetNumber": "40", "postalCode": "9100", "city": "Sint", "projectID": 54},
 {"streetName": "Groenplein", "streetNumber": "8", "postalCode": "2300", "city": "Turnhout", "projectID": 16},
 {"streetName": "Volksstraat", "streetNumber": "71", "postalCode": "2830", "city": "Willebroek", "projectID": 65},
 {"streetName": "DemoStreet", "streetNumber": "0", "postalCode": "0000", "city": "OSOC", "projectID": -1}
]